[{"OBJECT_NAME":"TRANSPORTER-12 OBJECT AZ","OBJECT_ID":"2025-009AZ","EPOCH":"2026-03-09T17:02:46.667040","MEAN_MOTION":15.30349724,"ECCENTRICITY":9.87e-5,"INCLINATION":97.3981,"RA_OF_ASC_NODE":151.9913,"ARG_OF_PERICENTER":45.3581,"MEAN_ANOMALY":314.774,"EPHEMERIS_TYPE":0,"CLASSIFICATION_TYPE":"U","NORAD_CAT_ID":62656,"ELEMENT_SET_NO":999,"REV_AT_EPOCH":6379,"BSTAR":0.00054902545,"MEAN_MOTION_DOT":0.00016057,"MEAN_MOTION_DDOT":0},{"OBJECT_NAME":"STARLINK-34782","OBJECT_ID":"2025-190H","EPOCH":"2026-03-09T14:00:18.525600","MEAN_MOTION":15.30185807,"ECCENTRICITY":0.0001372,"INCLINATION":53.1587,"RA_OF_ASC_NODE":168.3432,"ARG_OF_PERICENTER":90.4661,"MEAN_ANOMALY":269.6497,"EPHEMERIS_TYPE":0,"CLASSIFICATION_TYPE":"U","NORAD_CAT_ID":65358,"ELEMENT_SET_NO":999,"REV_AT_EPOCH":2974,"BSTAR":0.0011545,"MEAN_MOTION_DOT":0.00033975,"MEAN_MOTION_DDOT":0}]
