TRANSPORTER-12 OBJECT AZ
1 62656U 25009AZ  26068.71026235  .00016057  00000+0  54903-3 0  9991
2 62656  97.3981 151.9913 0000987  45.3581 314.7740 15.30349724 63792
STARLINK-34782          
1 65358U 25190H   26068.58354775  .00033975  00000+0  11545-2 0  9994
2 65358  53.1587 168.3432 0001372  90.4661 269.6497 15.30185807 29747
